FENGYUN 1C DEB          
1 32117U 99025CRK 17345.11431243  .00000521  00000-0  29611-3 0  9998
2 32117  98.8755  39.0366 0030892 175.1527 184.9951 14.14008589534835
